IRIDIUM 63              
1 25286U 98021B   25195.69330664  .00000246  00000+0  77196-4 0  9997
2 25286  86.3953  70.5908 0002125  91.0921 269.0520 14.36560952427794
IRIDIUM 69              
1 25319U 98026A   25195.96875262  .00000311  00000+0  90760-4 0  9992
2 25319  86.3955  83.6829 0001082   0.4347 359.6853 14.40988582427060
IRIDIUM 71              
1 25320U 98026B   25195.76366226  .00000241  00000+0  68413-4 0  9999
2 25320  86.3950  78.4548 0003017  41.2800 318.8627 14.41175049427562
IRIDIUM 73              
1 25344U 98032C   25195.63298426  .00000341  00000+0  79710-4 0  9997
2 25344  86.4395  35.1551 0001569  92.2073 267.9312 14.51736463434842
IRIDIUM 82              
1 25467U 98051A   25195.96952368  .00014328  00000+0  39837-3 0  9997
2 25467  86.3654  96.0672 0082720 188.7395 171.2421 15.33237804428219
